[["observe", {"vessel_name": "#autoLOC_501232", "vessel_type": "VesselSituation.flying", "vessel_situation": "VesselSituation.flying", "mission_time": 1762045472.773622, "universal_time": 6189.988730473501, "current_body": "Kerbin", "position": {"x": 0.0, "y": 0.0, "z": 0.0}, "velocity": {"x": 0.0, "y": 0.0, "z": 0.0}, "altitude": -2.0620783421909437, "surface_altitude": -2.0620783421909437, "speed": 0.0, "vertical_speed": 0, "g_force": 0, "orbit_parameters": {"apoapsis_altitude": 1645.2269393083407, "periapsis_altitude": -594684.7891035237, "inclination": 0.3213191720000599, "eccentricity": 0.9824858077556801, "period": 0, "time_to_apoapsis": 0, "time_to_periapsis": 0}, "resources": {}, "vessel_status": {"mass": 0.0, "dry_mass": 0, "thrust": 0.0, "available_thrust": 0.0, "max_thrust": 0.0, "specific_impulse": 0, "control_state": {"throttle": 0.0, "sas": false, "rcs": false, "gear": false, "lights": false, "brakes": false}}, "mechjeb_status": {"api_ready": true, "ascent_status": "Off"}, "part_status": {"part_count": 0, "stage_count": 0, "current_stage": 0}, "nearby_vessels": [], "comprehensive_telemetry": {"timestamp": 1762045472.820364, "basic_vessel": {"name": "#autoLOC_501232", "type": "VesselType.ship", "situation": "VesselSituation.flying", "mass": 0.0, "dry_mass": 0.0, "crew_count": 0, "crew_capacity": 0, "biome": "Water", "recoverable": true, "met": 5735.928730472539}, "performance": {"thrust": 0.0, "max_thrust": 0.0, "max_vacuum_thrust": 0.0, "specific_impulse": 0.0, "kerbin_sea_level_specific_impulse": 0.0, "vacuum_specific_impulse": 0.0}, "torque": {"available_control_surface_torque": [[0.0, 0.0, 0.0], [0.0, 0.0, 0.0]], "available_engine_torque": [[0.0, 0.0, 0.0], [0.0, 0.0, 0.0]], "available_rcs_torque": [[0.0, 0.0, 0.0], [0.0, 0.0, 0.0]], "available_reaction_wheel_torque": [[0.0, 0.0, 0.0], [0.0, 0.0, 0.0]], "available_thrust": 0.0, "available_torque": [[0.0, 0.0, 0.0], [0.0, 0.0, 0.0]]}, "position_velocity": {"position_vessel": [0.0, 0.0, 0.0], "velocity_vessel": [0.0, 0.0, 0.0], "position_orbital": [0.0, 0.0, 0.0], "velocity_orbital": [0.0, 0.0, 0.0], "position_surface": [0.0, 0.0, 0.0], "velocity_surface": [0.0, 0.0, 0.0], "speed": 0.0, "horizontal_speed": 0.0, "vertical_speed": 0.0, "equivalent_air_speed": 0.0, "true_air_speed": 242.69728088378906, "terminal_velocity": NaN}, "altitude_location": {"mean_altitude": -2.0620783421909437, "surface_altitude": -2.0620783421909437, "bedrock_altitude": 1134.097892969381, "latitude": 0.760393190142651, "longitude": -32.59070015615259, "elevation": -1136.159971311572}, "aerodynamics": {"atmosphere_density": 1.146652340888977, "dynamic_pressure": 0.0, "static_pressure": 101249.1015625, "static_pressure_at_msl": 101325.0, "drag": [0.0, -0.0, -0.0], "lift": [0.0, 0.0, 0.0], "mach": 0.69179767370224, "drag_coefficient": null, "lift_coefficient": null, "ballistic_coefficient": null, "reynolds_number": null}, "orientation": {"heading": 38.90776443481445, "pitch": -35.37100601196289, "roll": 14.582489013671875, "direction": [-0.5788686259317982, 0.6345263195028886, 0.5121400821747403], "rotation": [-0.4206985441567594, 0.7725938096078064, 0.07582596793360508, -0.46942727198711137], "angle_of_attack": 0.0, "sideslip_angle": 0.0}, "flight_dynamics": {"g_force": 0.0, "center_of_mass": [0.0, 0.0, 0.0], "aerodynamic_force": [0.0, 0.0, 0.0], "thrust_specific_fuel_consumption": null, "stall_fraction": null}, "reference_vectors": {"prograde": [-0.484250506209961, 0.27609913234900274, 0.8302232930673076], "retrograde": [0.484250506209961, -0.27609913234900274, -0.8302232930673076], "normal": [-0.01307364230077647, 0.9490767036430843, -0.3147737131320984], "anti_normal": [0.01307364230077647, -0.9490767036430843, 0.3147737131320984], "radial": [0.8748543353540729, 0.1632833722891424, 0.4559812528753592], "anti_radial": [-0.8748543353540729, -0.1632833722891424, -0.4559812528753592]}, "reference_frames": {"reference_frames": {"vessel": {"position": [0.0, 0.0, 0.0], "velocity": [0.0, 0.0, 0.0], "description": "Vessel-relative coordinates (X=right, Y=forward, Z=up)"}, "orbital": {"position": [0.0, 0.0, 0.0], "velocity": [0.0, 0.0, 0.0], "description": "Orbital coordinates (X=anti-radial, Y=prograde, Z=normal)"}, "surface": {"position": [0.0, 0.0, 0.0], "velocity": [0.0, 0.0, 0.0], "description": "Surface coordinates (X=zenith, Y=north, Z=east)"}}, "coordinate_systems": {"vessel_available": true, "orbital_available": true, "surface_available": true}}, "orbital": {"semi_major_axis": 303480.2189178923, "semi_minor_axis": 56549.72383699806, "eccentricity": 0.9824858077556801, "inclination": 0.3213191720000599, "longitude_of_ascending_node": 2.7254620151801126, "argument_of_periapsis": 3.1737322236533583, "mean_anomaly": 3.349890658372558, "eccentric_anomaly": -3.0364275357819026, "true_anomaly": -3.1316989543238134, "apoapsis": 601645.2269393083, "periapsis": 5315.2108964762665, "apoapsis_altitude": 1645.2269393083407, "periapsis_altitude": -594684.7891035237, "period": 558.9715411863189, "orbital_speed": 2191.3646406187418, "speed": 367.4754092667641, "radius": 599997.9379213947, "time_to_apoapsis": 540.4407083257292, "time_to_periapsis": 260.9549377325698, "time_to_soi_change": NaN, "epoch": 6047.808730472546, "mean_anomaly_at_epoch": 3.349890658372558, "body_name": "Kerbin"}, "control": {"pitch": 0.0, "yaw": 0.0, "roll": 0.0, "throttle": 0.0, "forward": -0.0, "up": 0.0, "right": -0.0, "sas": false, "rcs": false, "brakes": false, "gear": false, "lights": false, "abort": false, "custom_axis01": 0.0, "custom_axis02": 0.0, "custom_axis03": 0.0, "custom_axis04": 0.0, "wheel_steering": 0.0, "wheel_throttle": 0.0, "state": "ControlState.full", "source": "ControlSource.kerbal", "current_stage": 0, "stage_lock": false, "sas_mode": "SASMode.stability_assist", "input_mode": "ControlInputMode.additive"}, "resources": {}}, "execution_time": 0.022109031677246094}]]